ONEWEB-0430             
1 50501U 21132AJ  26127.12648032 -.00000065  00000+0 -19862-3 0  9995
2 50501  87.9181 343.6292 0001662  78.7853 281.3466 13.18685728216210
ONEWEB-0432             
1 50502U 21132AK  26127.08390787  .00000098  00000+0  21702-3 0  9992
2 50502  87.9187 343.6081 0001205  88.5812 271.5459 13.18712588216162
ONEWEB-0440             
1 50503U 21132AL  26127.14674093  .00000034  00000+0  52486-4 0  9999
2 50503  87.9192 343.6175 0002177  78.6081 281.5296 13.18687092216161
ONEWEB-0450             
1 50504U 21132AM  26127.14012895  .00000020  00000+0  17652-4 0  9997
2 50504  87.9181 343.6284 0001887  76.0664 284.0678 13.18686539216197
ONEWEB-0410             
1 51622U 22012A   26127.21174620  .00000994  00000+0  25272-2 0  9995
2 51622  87.9179  13.9955 0002052 108.0420 252.0935 13.17659886208308
ONEWEB-0411             
1 51623U 22012B   26127.23809332  .00000100  00000+0  25004-3 0  9996
2 51623  87.8857  44.4130 0001485  64.1184 296.0096 13.10370732203925
ONEWEB-0415             
1 51624U 22012C   26127.23477970  .00000101  00000+0  25349-3 0  9999
2 51624  87.8848  44.4153 0001621  78.5306 281.6003 13.10369014203927
ONEWEB-0416             
1 51625U 22012D   26127.24638897 -.00000459  00000+0 -13501-2 0  9992
2 51625  87.8850  44.4318 0001429  81.9446 278.1844 13.10369365203960
ONEWEB-0422             
1 51626U 22012E   26127.22186667  .00000077  00000+0  16586-3 0  9995
2 51626  87.9177  13.9984 0002168  67.6180 292.5181 13.17651377208414
ONEWEB-0423             
1 51627U 22012F   26127.21510660 -.00004023  00000+0 -10397-1 0  9998
2 51627  87.9175  14.0067 0001861  86.5649 273.5696 13.17668422208303
ONEWEB-0425             
1 51628U 22012G   26127.25635482 -.00000571  00000+0 -16711-2 0  9994
2 51628  87.8856  44.4118 0001988  88.5051 271.6304 13.10371711203969
ONEWEB-0428             
1 51629U 22012H   26127.23643713  .00000040  00000+0  77020-4 0  9990
2 51629  87.8851  44.4240 0001926  78.5126 281.6217 13.10369497203923
ONEWEB-0431             
1 51630U 22012J   26127.28278051  .00000361  00000+0  99787-3 0  9995
2 51630  87.8861  44.4056 0001599  59.3086 300.8198 13.10376647203982
ONEWEB-0434             
1 51631U 22012K   26127.25980118 -.00000604  00000+0 -17652-2 0  9999
2 51631  87.8859  44.4347 0002187  94.3097 265.8280 13.10373432203967
ONEWEB-0435             
1 51632U 22012L   26127.26796473 -.00000417  00000+0 -12305-2 0  9992
2 51632  87.8854  44.4228 0001990  70.5779 289.5564 13.10375141203951
ONEWEB-0436             
1 51633U 22012M   26127.20667836  .00000003  00000+0 -24373-4 0  9997
2 51633  87.9178  13.9883 0001891  74.5230 285.6111 13.17648347208280
