[{"OBJECT_NAME":"ONEWEB-0430","OBJECT_ID":"2021-132AJ","EPOCH":"2026-05-07T03:02:07.899648","MEAN_MOTION":13.18685728,"ECCENTRICITY":0.0001662,"INCLINATION":87.9181,"RA_OF_ASC_NODE":343.6292,"ARG_OF_PERICENTER":78.7853,"MEAN_ANOMALY":281.3466,"EPHEMERIS_TYPE":0,"CLASSIFICATION_TYPE":"U","NORAD_CAT_ID":50501,"ELEMENT_SET_NO":999,"REV_AT_EPOCH":21621,"BSTAR":-0.00019862,"MEAN_MOTION_DOT":-6.5e-07,"MEAN_MOTION_DDOT":0.0},{"OBJECT_NAME":"ONEWEB-0432","OBJECT_ID":"2021-132AK","EPOCH":"2026-05-07T02:00:49.639968","MEAN_MOTION":13.18712588,"ECCENTRICITY":0.0001205,"INCLINATION":87.9187,"RA_OF_ASC_NODE":343.6081,"ARG_OF_PERICENTER":88.5812,"MEAN_ANOMALY":271.5459,"EPHEMERIS_TYPE":0,"CLASSIFICATION_TYPE":"U","NORAD_CAT_ID":50502,"ELEMENT_SET_NO":999,"REV_AT_EPOCH":21616,"BSTAR":0.00021702,"MEAN_MOTION_DOT":9.8e-07,"MEAN_MOTION_DDOT":0.0},{"OBJECT_NAME":"ONEWEB-0440","OBJECT_ID":"2021-132AL","EPOCH":"2026-05-07T03:31:18.416352","MEAN_MOTION":13.18687092,"ECCENTRICITY":0.0002177,"INCLINATION":87.9192,"RA_OF_ASC_NODE":343.6175,"ARG_OF_PERICENTER":78.6081,"MEAN_ANOMALY":281.5296,"EPHEMERIS_TYPE":0,"CLASSIFICATION_TYPE":"U","NORAD_CAT_ID":50503,"ELEMENT_SET_NO":999,"REV_AT_EPOCH":21616,"BSTAR":5.2486e-05,"MEAN_MOTION_DOT":3.4e-07,"MEAN_MOTION_DDOT":0.0},{"OBJECT_NAME":"ONEWEB-0450","OBJECT_ID":"2021-132AM","EPOCH":"2026-05-07T03:21:47.141280","MEAN_MOTION":13.18686539,"ECCENTRICITY":0.0001887,"INCLINATION":87.9181,"RA_OF_ASC_NODE":343.6284,"ARG_OF_PERICENTER":76.0664,"MEAN_ANOMALY":284.0678,"EPHEMERIS_TYPE":0,"CLASSIFICATION_TYPE":"U","NORAD_CAT_ID":50504,"ELEMENT_SET_NO":999,"REV_AT_EPOCH":21619,"BSTAR":1.7652000000000003e-05,"MEAN_MOTION_DOT":2e-07,"MEAN_MOTION_DDOT":0.0},{"OBJECT_NAME":"ONEWEB-0410","OBJECT_ID":"2022-012A","EPOCH":"2026-05-07T05:04:54.871680","MEAN_MOTION":13.17659886,"ECCENTRICITY":0.0002052,"INCLINATION":87.9179,"RA_OF_ASC_NODE":13.9955,"ARG_OF_PERICENTER":108.042,"MEAN_ANOMALY":252.0935,"EPHEMERIS_TYPE":0,"CLASSIFICATION_TYPE":"U","NORAD_CAT_ID":51622,"ELEMENT_SET_NO":999,"REV_AT_EPOCH":20830,"BSTAR":0.0025272,"MEAN_MOTION_DOT":9.94e-06,"MEAN_MOTION_DDOT":0.0},{"OBJECT_NAME":"ONEWEB-0411","OBJECT_ID":"2022-012B","EPOCH":"2026-05-07T05:42:51.262848","MEAN_MOTION":13.10370732,"ECCENTRICITY":0.0001485,"INCLINATION":87.8857,"RA_OF_ASC_NODE":44.413,"ARG_OF_PERICENTER":64.1184,"MEAN_ANOMALY":296.0096,"EPHEMERIS_TYPE":0,"CLASSIFICATION_TYPE":"U","NORAD_CAT_ID":51623,"ELEMENT_SET_NO":999,"REV_AT_EPOCH":20392,"BSTAR":0.00025004,"MEAN_MOTION_DOT":1e-06,"MEAN_MOTION_DDOT":0.0},{"OBJECT_NAME":"ONEWEB-0415","OBJECT_ID":"2022-012C","EPOCH":"2026-05-07T05:38:04.966080","MEAN_MOTION":13.10369014,"ECCENTRICITY":0.0001621,"INCLINATION":87.8848,"RA_OF_ASC_NODE":44.4153,"ARG_OF_PERICENTER":78.5306,"MEAN_ANOMALY":281.6003,"EPHEMERIS_TYPE":0,"CLASSIFICATION_TYPE":"U","NORAD_CAT_ID":51624,"ELEMENT_SET_NO":999,"REV_AT_EPOCH":20392,"BSTAR":0.00025349,"MEAN_MOTION_DOT":1.01e-06,"MEAN_MOTION_DDOT":0.0},{"OBJECT_NAME":"ONEWEB-0416","OBJECT_ID":"2022-012D","EPOCH":"2026-05-07T05:54:48.007008","MEAN_MOTION":13.10369365,"ECCENTRICITY":0.0001429,"INCLINATION":87.885,"RA_OF_ASC_NODE":44.4318,"ARG_OF_PERICENTER":81.9446,"MEAN_ANOMALY":278.1844,"EPHEMERIS_TYPE":0,"CLASSIFICATION_TYPE":"U","NORAD_CAT_ID":51625,"ELEMENT_SET_NO":999,"REV_AT_EPOCH":20396,"BSTAR":-0.0013501,"MEAN_MOTION_DOT":-4.59e-06,"MEAN_MOTION_DDOT":0.0},{"OBJECT_NAME":"ONEWEB-0422","OBJECT_ID":"2022-012E","EPOCH":"2026-05-07T05:19:29.280288","MEAN_MOTION":13.17651377,"ECCENTRICITY":0.0002168,"INCLINATION":87.9177,"RA_OF_ASC_NODE":13.9984,"ARG_OF_PERICENTER":67.618,"MEAN_ANOMALY":292.5181,"EPHEMERIS_TYPE":0,"CLASSIFICATION_TYPE":"U","NORAD_CAT_ID":51626,"ELEMENT_SET_NO":999,"REV_AT_EPOCH":20841,"BSTAR":0.00016586000000000001,"MEAN_MOTION_DOT":7.7e-07,"MEAN_MOTION_DDOT":0.0},{"OBJECT_NAME":"ONEWEB-0423","OBJECT_ID":"2022-012F","EPOCH":"2026-05-07T05:09:45.210240","MEAN_MOTION":13.17668422,"ECCENTRICITY":0.0001861,"INCLINATION":87.9175,"RA_OF_ASC_NODE":14.0067,"ARG_OF_PERICENTER":86.5649,"MEAN_ANOMALY":273.5696,"EPHEMERIS_TYPE":0,"CLASSIFICATION_TYPE":"U","NORAD_CAT_ID":51627,"ELEMENT_SET_NO":999,"REV_AT_EPOCH":20830,"BSTAR":-0.010397000000000002,"MEAN_MOTION_DOT":-4.023e-05,"MEAN_MOTION_DDOT":0.0},{"OBJECT_NAME":"ONEWEB-0425","OBJECT_ID":"2022-012G","EPOCH":"2026-05-07T06:09:09.056448","MEAN_MOTION":13.10371711,"ECCENTRICITY":0.0001988,"INCLINATION":87.8856,"RA_OF_ASC_NODE":44.4118,"ARG_OF_PERICENTER":88.5051,"MEAN_ANOMALY":271.6304,"EPHEMERIS_TYPE":0,"CLASSIFICATION_TYPE":"U","NORAD_CAT_ID":51628,"ELEMENT_SET_NO":999,"REV_AT_EPOCH":20396,"BSTAR":-0.0016711,"MEAN_MOTION_DOT":-5.71e-06,"MEAN_MOTION_DDOT":0.0},{"OBJECT_NAME":"ONEWEB-0428","OBJECT_ID":"2022-012H","EPOCH":"2026-05-07T05:40:28.168032","MEAN_MOTION":13.10369497,"ECCENTRICITY":0.0001926,"INCLINATION":87.8851,"RA_OF_ASC_NODE":44.424,"ARG_OF_PERICENTER":78.5126,"MEAN_ANOMALY":281.6217,"EPHEMERIS_TYPE":0,"CLASSIFICATION_TYPE":"U","NORAD_CAT_ID":51629,"ELEMENT_SET_NO":999,"REV_AT_EPOCH":20392,"BSTAR":7.702e-05,"MEAN_MOTION_DOT":4e-07,"MEAN_MOTION_DDOT":0.0},{"OBJECT_NAME":"ONEWEB-0431","OBJECT_ID":"2022-012J","EPOCH":"2026-05-07T06:47:12.236064","MEAN_MOTION":13.10376647,"ECCENTRICITY":0.0001599,"INCLINATION":87.8861,"RA_OF_ASC_NODE":44.4056,"ARG_OF_PERICENTER":59.3086,"MEAN_ANOMALY":300.8198,"EPHEMERIS_TYPE":0,"CLASSIFICATION_TYPE":"U","NORAD_CAT_ID":51630,"ELEMENT_SET_NO":999,"REV_AT_EPOCH":20398,"BSTAR":0.00099787,"MEAN_MOTION_DOT":3.61e-06,"MEAN_MOTION_DDOT":0.0},{"OBJECT_NAME":"ONEWEB-0434","OBJECT_ID":"2022-012K","EPOCH":"2026-05-07T06:14:06.821952","MEAN_MOTION":13.10373432,"ECCENTRICITY":0.0002187,"INCLINATION":87.8859,"RA_OF_ASC_NODE":44.4347,"ARG_OF_PERICENTER":94.3097,"MEAN_ANOMALY":265.828,"EPHEMERIS_TYPE":0,"CLASSIFICATION_TYPE":"U","NORAD_CAT_ID":51631,"ELEMENT_SET_NO":999,"REV_AT_EPOCH":20396,"BSTAR":-0.0017652000000000002,"MEAN_MOTION_DOT":-6.04e-06,"MEAN_MOTION_DDOT":0.0},{"OBJECT_NAME":"ONEWEB-0435","OBJECT_ID":"2022-012L","EPOCH":"2026-05-07T06:25:52.152672","MEAN_MOTION":13.10375141,"ECCENTRICITY":0.000199,"INCLINATION":87.8854,"RA_OF_ASC_NODE":44.4228,"ARG_OF_PERICENTER":70.5779,"MEAN_ANOMALY":289.5564,"EPHEMERIS_TYPE":0,"CLASSIFICATION_TYPE":"U","NORAD_CAT_ID":51632,"ELEMENT_SET_NO":999,"REV_AT_EPOCH":20395,"BSTAR":-0.0012305,"MEAN_MOTION_DOT":-4.17e-06,"MEAN_MOTION_DDOT":0.0},{"OBJECT_NAME":"ONEWEB-0436","OBJECT_ID":"2022-012M","EPOCH":"2026-05-07T04:57:37.010304","MEAN_MOTION":13.17648347,"ECCENTRICITY":0.0001891,"INCLINATION":87.9178,"RA_OF_ASC_NODE":13.9883,"ARG_OF_PERICENTER":74.523,"MEAN_ANOMALY":285.6111,"EPHEMERIS_TYPE":0,"CLASSIFICATION_TYPE":"U","NORAD_CAT_ID":51633,"ELEMENT_SET_NO":999,"REV_AT_EPOCH":20828,"BSTAR":-2.4373000000000002e-05,"MEAN_MOTION_DOT":3e-08,"MEAN_MOTION_DDOT":0.0}]